OBJECT_NAME,OBJECT_ID,EPOCH,MEAN_MOTION,ECCENTRICITY,INCLINATION,RA_OF_ASC_NODE,ARG_OF_PERICENTER,MEAN_ANOMALY,EPHEMERIS_TYPE,CLASSIFICATION_TYPE,NORAD_CAT_ID,ELEMENT_SET_NO,REV_AT_EPOCH,BSTAR,MEAN_MOTION_DOT,MEAN_MOTION_DDOT
SKYSAT-C1,2016-040C,2026-06-28T14:44:23.064576,15.36489099,.0002291,96.9558,210.7152,34.8547,325.2848,0,U,41601,999,55962,.23331611E-3,.8233E-4,0
LAPAN-A3,2016-040E,2026-06-28T22:32:44.104704,15.33179151,.00094177,97.1487,175.6992,344.1268,15.9678,0,U,41603,999,55661,.10028999E-3,.3143E-4,0
GAOFEN-3,2016-049A,2026-06-29T00:24:28.094112,14.42216335,.00016143,98.4008,187.6242,97.6543,262.4830,0,U,41727,999,52035,-.45300603E-4,-.193E-5,0
SKYSAT-C4,2016-058B,2026-06-28T23:05:21.075072,15.48951488,.00022843,96.9170,201.2427,139.8061,220.3360,0,U,41771,999,54729,.29245694E-3,.15723E-3,0
SKYSAT-C5,2016-058C,2026-06-28T15:30:00.563040,15.34628337,.0001435,97.0464,219.7751,208.0815,152.0351,0,U,41772,999,54550,.21411383E-3,.711E-4,0
SKYSAT-C2,2016-058D,2026-06-28T14:44:38.271840,15.42324248,.00035988,97.0161,201.2800,45.6227,314.5315,0,U,41773,999,54681,.26192374E-3,.1121E-3,0
SKYSAT-C3,2016-058E,2026-06-28T14:44:45.972672,15.53021167,.00012919,96.9005,210.0237,126.3483,233.7891,0,U,41774,999,54788,.34151907E-3,.21246E-3,0
ALSAT-1B,2016-059C,2026-06-28T23:56:51.318816,14.72284016,.00090249,97.7747,188.2516,179.0553,181.0674,0,U,41785,999,52231,.97358838E-4,.568E-5,0
PATHFINDER 1,2016-059E,2026-06-28T22:20:46.010112,14.67675711,.00287704,97.8167,178.6774,165.9424,194.2589,0,U,41787,999,52143,.10693428E-3,.565E-5,0
SCATSAT 1,2016-059H,2026-06-28T21:55:04.345536,14.79550346,.00539975,98.1188,243.8003,209.0025,150.8183,0,U,41790,999,10332,.16162271E-3,.1182E-4,0
GOKTURK 1A,2016-073A,2026-06-28T22:37:37.145856,14.62782730,.00014313,98.1246,74.4333,79.2441,280.8922,0,U,41875,999,51054,.90661707E-4,.416E-5,0
RESOURCESAT-2A,2016-074A,2026-06-28T23:10:09.411744,14.21604642,.00031386,98.7532,253.3734,61.6381,298.5113,0,U,41877,999,49597,.11987194E-3,.219E-5,0
CARTOSAT-2D,2017-008A,2026-06-28T22:45:16.873344,15.19292958,.00048742,97.4111,239.0335,185.5600,174.5581,0,U,41948,999,51936,.15925631E-3,.3293E-4,0
SENTINEL-2B,2017-013A,2026-06-28T22:56:15.571392,14.30819856,.00012279,98.5697,254.5641,91.4426,268.6897,0,U,42063,999,48632,.2621654E-4,.25E-6,0
CARTOSAT-2E,2017-036C,2026-06-28T23:10:49.317312,15.19252784,.00023147,97.4279,239.5736,260.2353,99.8621,0,U,42767,999,49993,.14497892E-3,.2988E-4,0
FORMOSAT-5,2017-049A,2026-06-28T21:56:59.292960,14.50902783,.00123351,98.2253,254.9637,51.6753,308.5549,0,U,42920,999,46837,.46064248E-4,.138E-5,0
SENTINEL-5P,2017-064A,2026-06-28T19:58:10.304544,14.19520828,.00010307,98.7926,121.8806,90.7344,269.3950,0,U,42969,999,45121,.35915361E-4,.31E-6,0
SKYSAT-C11,2017-068A,2026-06-28T22:30:43.257024,15.58496008,.00004596,97.4357,329.2853,138.8930,221.2361,0,U,42987,999,48507,.34610515E-3,.26347E-3,0
SKYSAT-C10,2017-068B,2026-06-28T21:33:07.458336,15.34829526,.00012117,97.4514,316.8608,107.5234,252.6141,0,U,42988,999,48415,.25080332E-3,.8389E-4,0
SKYSAT-C9,2017-068C,2026-06-28T22:07:42.918528,15.41845493,.00094879,97.4437,317.9324,96.2624,263.9703,0,U,42989,999,48456,.30189102E-3,.12739E-3,0
SKYSAT-C8,2017-068D,2026-06-28T21:59:49.935552,15.37199088,.00013273,97.4533,316.7242,94.8960,265.2436,0,U,42990,999,48411,.27512591E-3,.9941E-4,0
SKYSAT-C7,2017-068E,2026-06-28T21:51:10.207584,15.37151824,.00069336,97.4543,317.7083,72.1944,288.0056,0,U,42991,999,48417,.26586846E-3,.9595E-4,0
SKYSAT-C6,2017-068F,2026-06-28T22:51:19.552032,15.34160511,.00052066,97.4580,317.6745,118.8840,241.2926,0,U,42992,999,48412,.2621852E-3,.8592E-4,0
CARTOSAT-2F,2018-004A,2026-06-28T23:57:12.092832,15.19301534,.00018791,97.4789,239.5172,161.1110,199.0195,0,U,43111,999,46912,.14929585E-3,.3082E-4,0
GAOFEN-1 02,2018-031A,2026-06-28T22:55:30.150912,14.76424677,.00027411,98.0529,242.4489,1.1199,359.0016,0,U,43259,999,44443,.11875028E-3,.774E-5,0
GAOFEN-1 04,2018-031D,2026-06-28T23:26:34.531584,14.76448723,.00019607,98.0530,242.5199,63.6494,296.4917,0,U,43262,999,44442,.46359693E-4,.271E-5,0
SENTINEL-3B,2018-039A,2026-06-28T19:57:01.908576,14.26737846,.00007876,98.6245,247.1963,110.7212,249.4053,0,U,43437,999,42578,.61078967E-4,.104E-5,0
GAOFEN-5 01,2018-043A,2026-06-28T21:54:50.603616,14.60613322,.00028399,98.4576,151.7458,62.7156,297.4333,0,U,43461,999,43340,.76392115E-4,.322E-5,0
GAOFEN-6,2018-048A,2026-06-28T23:57:41.415264,14.76375030,.00117428,98.0896,242.6612,127.5614,232.6664,0,U,43484,999,43513,.75131083E-4,.47E-5,0
